ISS (ZARYA)             
1 25544U 98067A   26100.52154889  .00006547  00000+0  12746-3 0  9995
2 25544  51.6328 274.9695 0006412 295.7162  64.3164 15.48861768561262
POISK                   
1 36086U 09060A   26100.52154889  .00006547  00000+0  12746-3 0  9993
2 36086  51.6328 274.9695 0006412 295.7162  64.3164 15.48861768561120
CSS (TIANHE)            
1 48274U 21035A   26100.18350541  .00027833  00000+0  30988-3 0  9995
2 48274  41.4683  16.3073 0004533 175.1456 184.9428 15.62208650282538
ISS (NAUKA)             
1 49044U 21066A   26100.52154889  .00006547  00000+0  12746-3 0  9991
2 49044  51.6328 274.9695 0006412 295.7162  64.3164 15.48861768561162
FREGAT DEB              
1 49271U 11037PF  26098.73378623  .00003254  00000+0  48703-2 0  9996
2 49271  51.6399 210.5288 0952585 128.2849 240.7644 12.40969631216425
CSS (WENTIAN)           
1 53239U 22085A   26100.18350541  .00027833  00000+0  30988-3 0  9998
2 53239  41.4683  16.3073 0004533 175.1456 184.9428 15.62208650282760
CSS (MENGTIAN)          
1 54216U 22143A   26100.18350541  .00027833  00000+0  30988-3 0  9999
2 54216  41.4683  16.3073 0004533 175.1456 184.9428 15.62208650282687
TIANZHOU-9              
1 64786U 25149A   26100.18350541  .00027833  00000+0  30988-3 0  9991
2 64786  41.4683  16.3073 0004533 175.1456 184.9428 15.62208650282680
PROGRESS-MS 32          
1 65586U 25204A   26100.19894350  .00006976  00000+0  13529-3 0  9991
2 65586  51.6328 276.5654 0006432 294.6645  65.3674 15.48858067554505
YOTSUBA-KULOVER         
1 65941U 98067XN  26100.42985191  .01055936  65374-3  12040-2 0  9999
2 65941  51.6115 250.1527 0010964 305.3796  54.6192 16.08460236 28554
BOTAN                   
1 65943U 98067XQ  26100.45423397  .00872117  40459-3  11958-2 0  9990
2 65943  51.6148 250.3495 0010576 300.8087  59.1884 16.05494820 28551
HRC MONOBLOCK CAMERA    
1 66052U 98067XR  26100.45728933  .00062929  00000+0  60657-3 0  9993
2 66052  51.6267 264.7829 0003869 258.4673 101.5888 15.65894919 27363
HTV-X1                  
1 66174U 25241A   26100.53836068  .00005421  00000+0  18104-3 0  9994
2 66174  51.6363 279.5106 0007355 296.8491  63.1738 15.32607380 25829
SZ-21 MODULE            
1 66515U 25246C   26100.43671141  .00039653  00000+0  30534-3 0  9991
2 66515  41.4753   7.5581 0004130 253.1440 106.8950 15.71205012 23066
SHENZHOU-22             
1 66645U 25272A   26100.18350541  .00027833  00000+0  30988-3 0  9994
2 66645  41.4683  16.3073 0004533 175.1456 184.9428 15.62208650282686
SOYUZ-MS 28             
1 66664U 25275A   26100.52154889  .00006547  00000+0  12746-3 0  9994
2 66664  51.6328 274.9695 0006412 295.7162  64.3164 15.48861768561406
