[{"OBJECT_NAME":"ISS (ZARYA)","OBJECT_ID":"1998-067A","EPOCH":"2026-04-10T12:31:01.824096","MEAN_MOTION":15.48861768,"ECCENTRICITY":0.0006412,"INCLINATION":51.6328,"RA_OF_ASC_NODE":274.9695,"ARG_OF_PERICENTER":295.7162,"MEAN_ANOMALY":64.3164,"EPHEMERIS_TYPE":0,"CLASSIFICATION_TYPE":"U","NORAD_CAT_ID":25544,"ELEMENT_SET_NO":999,"REV_AT_EPOCH":56126,"BSTAR":0.00012746,"MEAN_MOTION_DOT":6.547e-5,"MEAN_MOTION_DDOT":0},{"OBJECT_NAME":"POISK","OBJECT_ID":"2009-060A","EPOCH":"2026-04-10T12:31:01.824096","MEAN_MOTION":15.48861768,"ECCENTRICITY":0.0006412,"INCLINATION":51.6328,"RA_OF_ASC_NODE":274.9695,"ARG_OF_PERICENTER":295.7162,"MEAN_ANOMALY":64.3164,"EPHEMERIS_TYPE":0,"CLASSIFICATION_TYPE":"U","NORAD_CAT_ID":36086,"ELEMENT_SET_NO":999,"REV_AT_EPOCH":56112,"BSTAR":0.00012746,"MEAN_MOTION_DOT":6.547e-5,"MEAN_MOTION_DDOT":0},{"OBJECT_NAME":"CSS (TIANHE)","OBJECT_ID":"2021-035A","EPOCH":"2026-04-10T04:24:14.867424","MEAN_MOTION":15.6220865,"ECCENTRICITY":0.00045337,"INCLINATION":41.4683,"RA_OF_ASC_NODE":16.3073,"ARG_OF_PERICENTER":175.1456,"MEAN_ANOMALY":184.9428,"EPHEMERIS_TYPE":0,"CLASSIFICATION_TYPE":"U","NORAD_CAT_ID":48274,"ELEMENT_SET_NO":999,"REV_AT_EPOCH":28253,"BSTAR":0.00030988009,"MEAN_MOTION_DOT":0.00027833,"MEAN_MOTION_DDOT":0},{"OBJECT_NAME":"ISS (NAUKA)","OBJECT_ID":"2021-066A","EPOCH":"2026-04-10T12:31:01.824096","MEAN_MOTION":15.48861768,"ECCENTRICITY":0.0006412,"INCLINATION":51.6328,"RA_OF_ASC_NODE":274.9695,"ARG_OF_PERICENTER":295.7162,"MEAN_ANOMALY":64.3164,"EPHEMERIS_TYPE":0,"CLASSIFICATION_TYPE":"U","NORAD_CAT_ID":49044,"ELEMENT_SET_NO":999,"REV_AT_EPOCH":56116,"BSTAR":0.00012746,"MEAN_MOTION_DOT":6.547e-5,"MEAN_MOTION_DDOT":0},{"OBJECT_NAME":"FREGAT DEB","OBJECT_ID":"2011-037PF","EPOCH":"2026-04-08T17:36:39.130272","MEAN_MOTION":12.40969631,"ECCENTRICITY":0.09525854,"INCLINATION":51.6399,"RA_OF_ASC_NODE":210.5288,"ARG_OF_PERICENTER":128.2849,"MEAN_ANOMALY":240.7644,"EPHEMERIS_TYPE":0,"CLASSIFICATION_TYPE":"U","NORAD_CAT_ID":49271,"ELEMENT_SET_NO":999,"REV_AT_EPOCH":21642,"BSTAR":0.0048703458,"MEAN_MOTION_DOT":3.254e-5,"MEAN_MOTION_DDOT":0},{"OBJECT_NAME":"CSS (WENTIAN)","OBJECT_ID":"2022-085A","EPOCH":"2026-04-10T04:24:14.867424","MEAN_MOTION":15.6220865,"ECCENTRICITY":0.00045337,"INCLINATION":41.4683,"RA_OF_ASC_NODE":16.3073,"ARG_OF_PERICENTER":175.1456,"MEAN_ANOMALY":184.9428,"EPHEMERIS_TYPE":0,"CLASSIFICATION_TYPE":"U","NORAD_CAT_ID":53239,"ELEMENT_SET_NO":999,"REV_AT_EPOCH":28276,"BSTAR":0.00030988009,"MEAN_MOTION_DOT":0.00027833,"MEAN_MOTION_DDOT":0},{"OBJECT_NAME":"CSS (MENGTIAN)","OBJECT_ID":"2022-143A","EPOCH":"2026-04-10T04:24:14.867424","MEAN_MOTION":15.6220865,"ECCENTRICITY":0.00045337,"INCLINATION":41.4683,"RA_OF_ASC_NODE":16.3073,"ARG_OF_PERICENTER":175.1456,"MEAN_ANOMALY":184.9428,"EPHEMERIS_TYPE":0,"CLASSIFICATION_TYPE":"U","NORAD_CAT_ID":54216,"ELEMENT_SET_NO":999,"REV_AT_EPOCH":28268,"BSTAR":0.00030988009,"MEAN_MOTION_DOT":0.00027833,"MEAN_MOTION_DDOT":0},{"OBJECT_NAME":"TIANZHOU-9","OBJECT_ID":"2025-149A","EPOCH":"2026-04-10T04:24:14.867424","MEAN_MOTION":15.6220865,"ECCENTRICITY":0.00045337,"INCLINATION":41.4683,"RA_OF_ASC_NODE":16.3073,"ARG_OF_PERICENTER":175.1456,"MEAN_ANOMALY":184.9428,"EPHEMERIS_TYPE":0,"CLASSIFICATION_TYPE":"U","NORAD_CAT_ID":64786,"ELEMENT_SET_NO":999,"REV_AT_EPOCH":28268,"BSTAR":0.00030988009,"MEAN_MOTION_DOT":0.00027833,"MEAN_MOTION_DDOT":0},{"OBJECT_NAME":"PROGRESS-MS 32","OBJECT_ID":"2025-204A","EPOCH":"2026-04-10T04:46:28.718400","MEAN_MOTION":15.48858067,"ECCENTRICITY":0.0006432,"INCLINATION":51.6328,"RA_OF_ASC_NODE":276.5654,"ARG_OF_PERICENTER":294.6645,"MEAN_ANOMALY":65.3674,"EPHEMERIS_TYPE":0,"CLASSIFICATION_TYPE":"U","NORAD_CAT_ID":65586,"ELEMENT_SET_NO":999,"REV_AT_EPOCH":55450,"BSTAR":0.00013529077,"MEAN_MOTION_DOT":6.976e-5,"MEAN_MOTION_DDOT":0},{"OBJECT_NAME":"YOTSUBA-KULOVER","OBJECT_ID":"1998-067XN","EPOCH":"2026-04-10T10:18:59.205024","MEAN_MOTION":16.08460236,"ECCENTRICITY":0.0010964,"INCLINATION":51.6115,"RA_OF_ASC_NODE":250.1527,"ARG_OF_PERICENTER":305.3796,"MEAN_ANOMALY":54.6192,"EPHEMERIS_TYPE":0,"CLASSIFICATION_TYPE":"U","NORAD_CAT_ID":65941,"ELEMENT_SET_NO":999,"REV_AT_EPOCH":2855,"BSTAR":0.001204,"MEAN_MOTION_DOT":0.01055936,"MEAN_MOTION_DDOT":0.00065374},{"OBJECT_NAME":"BOTAN","OBJECT_ID":"1998-067XQ","EPOCH":"2026-04-10T10:54:05.815008","MEAN_MOTION":16.0549482,"ECCENTRICITY":0.0010576,"INCLINATION":51.6148,"RA_OF_ASC_NODE":250.3495,"ARG_OF_PERICENTER":300.8087,"MEAN_ANOMALY":59.1884,"EPHEMERIS_TYPE":0,"CLASSIFICATION_TYPE":"U","NORAD_CAT_ID":65943,"ELEMENT_SET_NO":999,"REV_AT_EPOCH":2855,"BSTAR":0.0011958,"MEAN_MOTION_DOT":0.00872117,"MEAN_MOTION_DDOT":0.00040459},{"OBJECT_NAME":"HRC MONOBLOCK CAMERA","OBJECT_ID":"1998-067XR","EPOCH":"2026-04-10T10:58:29.798112","MEAN_MOTION":15.65894919,"ECCENTRICITY":0.0003869,"INCLINATION":51.6267,"RA_OF_ASC_NODE":264.7829,"ARG_OF_PERICENTER":258.4673,"MEAN_ANOMALY":101.5888,"EPHEMERIS_TYPE":0,"CLASSIFICATION_TYPE":"U","NORAD_CAT_ID":66052,"ELEMENT_SET_NO":999,"REV_AT_EPOCH":2736,"BSTAR":0.00060657,"MEAN_MOTION_DOT":0.00062929,"MEAN_MOTION_DDOT":0},{"OBJECT_NAME":"HTV-X1","OBJECT_ID":"2025-241A","EPOCH":"2026-04-10T12:55:14.362752","MEAN_MOTION":15.3260738,"ECCENTRICITY":0.0007355,"INCLINATION":51.6363,"RA_OF_ASC_NODE":279.5106,"ARG_OF_PERICENTER":296.8491,"MEAN_ANOMALY":63.1738,"EPHEMERIS_TYPE":0,"CLASSIFICATION_TYPE":"U","NORAD_CAT_ID":66174,"ELEMENT_SET_NO":999,"REV_AT_EPOCH":2582,"BSTAR":0.00018104,"MEAN_MOTION_DOT":5.421e-5,"MEAN_MOTION_DDOT":0},{"OBJECT_NAME":"SZ-21 MODULE","OBJECT_ID":"2025-246C","EPOCH":"2026-04-10T10:28:51.865824","MEAN_MOTION":15.71205012,"ECCENTRICITY":0.000413,"INCLINATION":41.4753,"RA_OF_ASC_NODE":7.5581,"ARG_OF_PERICENTER":253.144,"MEAN_ANOMALY":106.895,"EPHEMERIS_TYPE":0,"CLASSIFICATION_TYPE":"U","NORAD_CAT_ID":66515,"ELEMENT_SET_NO":999,"REV_AT_EPOCH":2306,"BSTAR":0.00030534,"MEAN_MOTION_DOT":0.00039653,"MEAN_MOTION_DDOT":0},{"OBJECT_NAME":"SHENZHOU-22","OBJECT_ID":"2025-272A","EPOCH":"2026-04-10T04:24:14.867424","MEAN_MOTION":15.6220865,"ECCENTRICITY":0.00045337,"INCLINATION":41.4683,"RA_OF_ASC_NODE":16.3073,"ARG_OF_PERICENTER":175.1456,"MEAN_ANOMALY":184.9428,"EPHEMERIS_TYPE":0,"CLASSIFICATION_TYPE":"U","NORAD_CAT_ID":66645,"ELEMENT_SET_NO":999,"REV_AT_EPOCH":28268,"BSTAR":0.00030988009,"MEAN_MOTION_DOT":0.00027833,"MEAN_MOTION_DDOT":0},{"OBJECT_NAME":"SOYUZ-MS 28","OBJECT_ID":"2025-275A","EPOCH":"2026-04-10T12:31:01.824096","MEAN_MOTION":15.48861768,"ECCENTRICITY":0.0006412,"INCLINATION":51.6328,"RA_OF_ASC_NODE":274.9695,"ARG_OF_PERICENTER":295.7162,"MEAN_ANOMALY":64.3164,"EPHEMERIS_TYPE":0,"CLASSIFICATION_TYPE":"U","NORAD_CAT_ID":66664,"ELEMENT_SET_NO":999,"REV_AT_EPOCH":56140,"BSTAR":0.00012746,"MEAN_MOTION_DOT":6.547e-5,"MEAN_MOTION_DDOT":0}]
